MONITOR-3 (RS58S)       
1 57180U 23091Q   26139.17836852  .00006522  00000+0  24705-3 0  9992
2 57180  97.5094 202.4233 0011667 194.0872 166.0043 15.27196112159869
MONITOR-4 (RS57S)       
1 57182U 23091S   26139.15921976  .00006121  00000+0  23138-3 0  9998
2 57182  97.5089 202.3733 0011609 194.6299 165.4605 15.27292672159869
MONITOR-2 (RS39S)       
1 57184U 23091U   26139.19145003  .00002955  00000+0  14597-3 0  9993
2 57184  97.5088 197.6652 0010588 205.7380 154.3328 15.18610433159550
SVYATOBOR 1 (RS60S)     
1 57187U 23091X   26139.14814819  .00005794  00000+0  22750-3 0  9993
2 57187  97.5101 202.8143 0009556 184.9334 175.1812 15.26067201159886
HORS 1                  
1 57188U 23091Y   26139.13560784  .00006231  00000+0  24375-3 0  9994
2 57188  97.5080 202.5679 0009031 184.1166 175.9999 15.26165116159885
VIZARD-METEO (RS38S)    
1 57189U 23091Z   26139.14840316  .00011289  00000+0  33431-3 0  9990
2 57189  97.5101 208.0723 0008244 164.6818 195.4676 15.35013583160233
SITRO-AIS 6 (CHIRKIN)   
1 57192U 23091AC  26139.18956325  .00006221  00000+0  24940-3 0  9991
2 57192  97.5080 202.0967 0011447 200.1448 159.9340 15.25325253159860
SITRO-AIS 8 (ANOKHIN)   
1 57193U 23091AD  26139.14643473  .00009389  00000+0  31291-3 0  9990
2 57193  97.5067 204.2572 0010633 192.4320 167.6660 15.31269390160005
SITRO-AIS 7 (FARTUSHNIY)
1 57194U 23091AE  26139.18691277  .00005923  00000+0  23972-3 0  9997
2 57194  97.5077 201.9337 0011252 201.2239 158.8533 15.25027120159854
AVION KALUGA 650        
1 57195U 23091AF  26139.19977609  .00003346  00000+0  15841-3 0  9998
2 57195  97.5105 198.8981 0009850 202.9749 157.1047 15.20009662159624
HORS 2                  
1 57196U 23091AG  26139.15401449  .00008468  00000+0  28432-3 0  9999
2 57196  97.5099 205.8039 0008659 175.9683 184.1629 15.31080262160087
A-SEANSAT-PG1           
1 57197U 23091AH  26139.15893559  .00010601  00000+0  30585-3 0  9991
2 57197  97.5090 208.1437 0008036 171.6248 188.5131 15.35854509160258
SITRO-AIS 10 (BURDAEV)  
1 57199U 23091AK  26139.16688355  .00011760  00000+0  32255-3 0  9993
2 57199  97.5090 209.0406 0007599 165.8264 194.3194 15.37410340160305
SITRO-AIS 9 (SHCHUKIN)  
1 57201U 23091AM  26139.18441381  .00011677  00000+0  32499-3 0  9992
2 57201  97.5088 208.8104 0007796 166.2092 193.9366 15.36954282160292
UTMN 2 (RS27S)          
1 57203U 23091AP  26139.18458086  .00008135  00000+0  27168-3 0  9996
2 57203  97.5096 206.0191 0008683 171.5568 188.5820 15.31266983160106
SITRO-AIS 12 (SMIRENNIY)
1 57204U 23091AQ  26139.18045825  .00011397  00000+0  31439-3 0  9990
2 57204  97.5100 209.2556 0007588 160.5732 199.5803 15.37239578160319
SITRO-AIS 11 (SHEFFER)  
1 57208U 23091AU  26139.13655028  .00013116  00000+0  35681-3 0  9995
2 57208  97.5099 209.4395 0007510 160.5757 199.5775 15.37635533160325
H2SAT (HEINRICH HERTZ)  
1 57213U 23093A   26139.16731171  .00000002  00000+0  00000+0 0  9993
2 57213   0.0082 267.2769 0000646 193.3794 197.1205  1.00270360 10624
KUZGTU 1 (RS47S)        
1 57217U 23091AV  26139.18242220  .00007400  00000+0  26404-3 0  9998
2 57217  97.5075 203.3810 0011060 190.5327 169.5683 15.29126307159941
QIANKUN-1               
1 57422U 23103B   26139.10361337  .00018042  18021-5  22184-4 0  9997
2 57422  96.1627 185.9594 0024254 124.2386 236.1202 16.07717701162627
FENGYUN 3F              
1 57490U 23111A   26139.22432461  .00000036  00000+0  37301-4 0  9994
2 57490  98.6841 209.7709 0001346 112.5387 247.5932 14.19933502144758
HJ-2F                   
1 57519U 23116A   26139.19489880  .00004735  00000+0  21098-3 0  9999
2 57519  97.3848 144.9290 0010119 135.1277 225.0779 15.21867928154343
XRISM                   
1 57800U 23137A   26139.15028219  .00002469  00000+0  13403-3 0  9999
2 57800  31.0009 187.6527 0007575  30.7453 329.3628 15.12193938148465
METEOR-M2 4             
1 59051U 24039A   26139.20248365 -.00000011  00000+0  14550-4 0  9990
2 59051  98.6995  98.8680 0005935 251.6594 108.3939 14.22426215115145
GRBBETA                 
1 60237U 24128C   26138.75008860  .00002817  00000+0  20089-3 0  9998
2 60237  61.9902 319.5268 0044653 128.5364 231.9745 15.06373372101833
TRANSPORTER-11 OBJECT A 
1 60468U 24149A   26139.16528914  .00005252  00000+0  17045-3 0  9994
2 60468  97.3734 219.1966 0002361 354.4843   5.6372 15.32391375 97611
WARATAH SEED-1          
1 60469U 24149B   26139.17755171  .00008147  00000+0  24116-3 0  9996
2 60469  97.3690 219.7425 0001240  30.2726 329.8589 15.35148572 97661
PHISAT 2                
1 60470U 24149C   26139.22071426  .00006711  00000+0  22941-3 0  9997
2 60470  97.3758 218.6081 0001770  46.4281 313.7106 15.30603192 97562
LEMUR-2-TOMATOKECHUP    
1 60471U 24149D   26139.17671104  .00006718  00000+0  19789-3 0  9994
2 60471  97.3798 221.1644 0001452  41.8274 318.3080 15.35374128 97717
