OBJECT_NAME,OBJECT_ID,EPOCH,MEAN_MOTION,ECCENTRICITY,INCLINATION,RA_OF_ASC_NODE,ARG_OF_PERICENTER,MEAN_ANOMALY,EPHEMERIS_TYPE,CLASSIFICATION_TYPE,NORAD_CAT_ID,ELEMENT_SET_NO,REV_AT_EPOCH,BSTAR,MEAN_MOTION_DOT,MEAN_MOTION_DDOT
MONITOR-3 (RS58S),2023-091Q,2026-05-19T04:16:51.040128,15.27196112,.0011667,97.5094,202.4233,194.0872,166.0043,0,U,57180,999,15986,.24705E-3,.6522E-4,0
MONITOR-4 (RS57S),2023-091S,2026-05-19T03:49:16.587264,15.27292672,.0011609,97.5089,202.3733,194.6299,165.4605,0,U,57182,999,15986,.23138E-3,.6121E-4,0
MONITOR-2 (RS39S),2023-091U,2026-05-19T04:35:41.282592,15.18610433,.0010588,97.5088,197.6652,205.7380,154.3328,0,U,57184,999,15955,.14597E-3,.2955E-4,0
SVYATOBOR 1 (RS60S),2023-091X,2026-05-19T03:33:20.003616,15.26067201,.0009556,97.5101,202.8143,184.9334,175.1812,0,U,57187,999,15988,.2275E-3,.5794E-4,0
HORS 1,2023-091Y,2026-05-19T03:15:16.517376,15.26165116,.0009031,97.5080,202.5679,184.1166,175.9999,0,U,57188,999,15988,.24375E-3,.6231E-4,0
VIZARD-METEO (RS38S),2023-091Z,2026-05-19T03:33:42.033024,15.35013583,.0008244,97.5101,208.0723,164.6818,195.4676,0,U,57189,999,16023,.33431E-3,.11289E-3,0
SITRO-AIS 6 (CHIRKIN),2023-091AC,2026-05-19T04:32:58.264800,15.25325253,.0011447,97.5080,202.0967,200.1448,159.9340,0,U,57192,999,15986,.2494E-3,.6221E-4,0
SITRO-AIS 8 (ANOKHIN),2023-091AD,2026-05-19T03:30:51.960672,15.31269390,.0010633,97.5067,204.2572,192.4320,167.6660,0,U,57193,999,16000,.31291E-3,.9389E-4,0
SITRO-AIS 7 (FARTUSHNIY),2023-091AE,2026-05-19T04:29:09.263328,15.25027120,.0011252,97.5077,201.9337,201.2239,158.8533,0,U,57194,999,15985,.23972E-3,.5923E-4,0
AVION KALUGA 650,2023-091AF,2026-05-19T04:47:40.654176,15.20009662,.000985,97.5105,198.8981,202.9749,157.1047,0,U,57195,999,15962,.15841E-3,.3346E-4,0
HORS 2,2023-091AG,2026-05-19T03:41:46.851936,15.31080262,.0008659,97.5099,205.8039,175.9683,184.1629,0,U,57196,999,16008,.28432E-3,.8468E-4,0
A-SEANSAT-PG1,2023-091AH,2026-05-19T03:48:52.034976,15.35854509,.0008036,97.5090,208.1437,171.6248,188.5131,0,U,57197,999,16025,.30585E-3,.10601E-3,0
SITRO-AIS 10 (BURDAEV),2023-091AK,2026-05-19T04:00:18.738720,15.37410340,.0007599,97.5090,209.0406,165.8264,194.3194,0,U,57199,999,16030,.32255E-3,.1176E-3,0
SITRO-AIS 9 (SHCHUKIN),2023-091AM,2026-05-19T04:25:33.353184,15.36954282,.0007796,97.5088,208.8104,166.2092,193.9366,0,U,57201,999,16029,.32499E-3,.11677E-3,0
UTMN 2 (RS27S),2023-091AP,2026-05-19T04:25:47.786304,15.31266983,.0008683,97.5096,206.0191,171.5568,188.5820,0,U,57203,999,16010,.27168E-3,.8135E-4,0
SITRO-AIS 12 (SMIRENNIY),2023-091AQ,2026-05-19T04:19:51.592800,15.37239578,.0007588,97.5100,209.2556,160.5732,199.5803,0,U,57204,999,16031,.31439E-3,.11397E-3,0
SITRO-AIS 11 (SHEFFER),2023-091AU,2026-05-19T03:16:37.944192,15.37635533,.000751,97.5099,209.4395,160.5757,199.5775,0,U,57208,999,16032,.35681E-3,.13116E-3,0
H2SAT (HEINRICH HERTZ),2023-093A,2026-05-19T04:00:55.731744,1.00270360,.0000646,0.0082,267.2769,193.3794,197.1205,0,U,57213,999,1062,0,.2E-7,0
KUZGTU 1 (RS47S),2023-091AV,2026-05-19T04:22:41.278080,15.29126307,.001106,97.5075,203.3810,190.5327,169.5683,0,U,57217,999,15994,.26404E-3,.74E-4,0
QIANKUN-1,2023-103B,2026-05-19T02:29:12.195168,16.07717701,.0024254,96.1627,185.9594,124.2386,236.1202,0,U,57422,999,16262,.22184E-4,.18042E-3,.18021E-5
FENGYUN 3F,2023-111A,2026-05-19T05:23:01.646304,14.19933502,.0001346,98.6841,209.7709,112.5387,247.5932,0,U,57490,999,14475,.37301E-4,.36E-6,0
HJ-2F,2023-116A,2026-05-19T04:40:39.256320,15.21867928,.0010119,97.3848,144.9290,135.1277,225.0779,0,U,57519,999,15434,.21098E-3,.4735E-4,0
XRISM,2023-137A,2026-05-19T03:36:24.381216,15.12193938,.0007575,31.0009,187.6527,30.7453,329.3628,0,U,57800,999,14846,.13403E-3,.2469E-4,0
METEOR-M2 4,2024-039A,2026-05-19T04:51:34.587360,14.22426215,.0005935,98.6995,98.8680,251.6594,108.3939,0,U,59051,999,11514,.1455E-4,-.11E-6,0
GRBBETA,2024-128C,2026-05-18T18:00:07.655040,15.06373372,.0044653,61.9902,319.5268,128.5364,231.9745,0,U,60237,999,10183,.20089E-3,.2817E-4,0
TRANSPORTER-11 OBJECT A,2024-149A,2026-05-19T03:58:00.981696,15.32391375,.0002361,97.3734,219.1966,354.4843,5.6372,0,U,60468,999,9761,.17045E-3,.5252E-4,0
WARATAH SEED-1,2024-149B,2026-05-19T04:15:40.467744,15.35148572,.000124,97.3690,219.7425,30.2726,329.8589,0,U,60469,999,9766,.24116E-3,.8147E-4,0
PHISAT 2,2024-149C,2026-05-19T05:17:49.712064,15.30603192,.000177,97.3758,218.6081,46.4281,313.7106,0,U,60470,999,9756,.22941E-3,.6711E-4,0
LEMUR-2-TOMATOKECHUP,2024-149D,2026-05-19T04:14:27.833856,15.35374128,.0001452,97.3798,221.1644,41.8274,318.3080,0,U,60471,999,9771,.19789E-3,.6718E-4,0
